NORAD_CAT_ID,OBJECT_NAME,OBJECT_TYPE,EPOCH,MEAN_MOTION,ECCENTRICITY,INCLINATION,RA_OF_ASC_NODE,ARG_OF_PERICENTER,MEAN_ANOMALY,BSTAR,MEAN_MOTION_DOT,MEAN_MOTION_DDOT,TLE_LINE0,TLE_LINE1,TLE_LINE2,SEMIMAJOR_AXIS,PERIOD,APOGEE,PERIGEE,DECAYED
54765.0,STARLINK-5466,PAYLOAD,2023-12-29 02:14:35,15.08831766,0.0001927,53.2203,42.7442,68.1976,291.9221,0.00015491,2.178e-05,0.0,0 STARLINK-5466,1 54765U 22175H   23363.09346088  .00002178  00000-0  15491-3 0  9990,2 54765  53.2203  42.7442 0001927  68.1976 291.9221 15.08831766 56757,6917.906,95.438,541.104,538.437,0.0
54765.0,STARLINK-5466,PAYLOAD,2023-12-29 08:36:07,15.08834908,0.0001794,53.2189,41.5496,67.0619,293.0562,3.6486e-05,2.93e-06,0.0,0 STARLINK-5466,1 54765U 22175H   23363.35842310  .00000293  00000-0  36486-4 0  9992,2 54765  53.2189  41.5496 0001794  67.0619 293.0562 15.08834908 58945,6917.896,95.438,541.002,538.52,0.0
54765.0,STARLINK-5466,PAYLOAD,2023-12-30 11:37:40,15.08850881,0.0002206,53.2183,36.4928,113.6547,246.4677,0.00010471,1.379e-05,0.0,0 STARLINK-5466,1 54765U 22175H   23364.48449102  .00001379  00000-0  10471-3 0  9990,2 54765  53.2183  36.4928 0002206 113.6547 246.4677 15.08850881 56966,6917.847,95.437,541.238,538.186,0.0
54765.0,STARLINK-5466,PAYLOAD,2023-12-30 22:45:19,15.08878113,0.0002201,53.2173,34.4122,66.8027,293.3197,0.00044029,6.733e-05,0.0,0 STARLINK-5466,1 54765U 22175H   23364.94814154  .00006733  00000-0  44029-3 0  9999,2 54765  53.2173  34.4122 0002201  66.8027 293.3197 15.08878113 57031,6917.764,95.435,541.151,538.106,0.0
54765.0,STARLINK-5466,PAYLOAD,2023-12-31 11:28:28,15.08825401,0.0001941,53.2191,32.0322,79.6845,280.4366,-3.22e-05,-8e-06,0.0,0 STARLINK-5466,1 54765U 22175H   23365.47810663 -.00000800  00000-0 -32200-4 0  9999,2 54765  53.2191  32.0322 0001941  79.6845 280.4366 15.08825401 57113,6917.925,95.438,541.133,538.447,0.0
54765.0,STARLINK-5466,PAYLOAD,2024-01-01 01:46:56,15.08830065,0.0001668,53.2174,29.3565,94.4445,265.6738,-0.00013148,-2.379e-05,0.0,0 STARLINK-5466,1 54765U 22175H   24001.07425963 -.00002379  00000-0 -13148-3 0  9990,2 54765  53.2174  29.3565 0001668  94.4445 265.6738 15.08830065 57209,6917.911,95.438,540.93,538.622,0.0
54765.0,STARLINK-5466,PAYLOAD,2024-01-01 08:08:28,15.08839283,0.0001845,53.2181,28.1695,99.1039,261.0162,2.5799e-05,1.22e-06,0.0,0 STARLINK-5466,1 54765U 22175H   24001.33921627  .00000122  00000-0  25799-4 0  9995,2 54765  53.2181  28.1695 0001845  99.1039 261.0162 15.08839283 57242,6917.883,95.438,541.024,538.471,0.0
54765.0,STARLINK-5466,PAYLOAD,2024-01-02 07:59:15,15.08844511,0.000174,53.2178,23.7089,90.3866,269.7326,0.00055457,8.55e-05,0.0,0 STARLINK-5466,1 54765U 22175H   24002.33282051  .00008550  00000-0  55457-3 0  9993,2 54765  53.2178  23.7089 0001740  90.3866 269.7326 15.08844511 59543,6917.867,95.437,540.935,538.528,0.0
54765.0,STARLINK-5466,PAYLOAD,2024-01-02 22:17:43,15.08842258,0.0001835,53.2176,21.0323,102.0459,258.0739,0.00028862,4.309e-05,0.0,0 STARLINK-5466,1 54765U 22175H   24002.92898099  .00004309  00000-0  28862-3 0  9991,2 54765  53.2176  21.0323 0001835 102.0459 258.0739 15.08842258 57483,6917.873,95.437,541.008,538.469,0.0
54765.0,STARLINK-5466,PAYLOAD,2024-01-03 11:00:49,15.08834823,0.0001759,53.2172,18.6524,92.1336,267.9858,7.2665e-05,8.68e-06,0.0,0 STARLINK-5466,1 54765U 22175H   24003.45890536  .00000868  00000-0  72665-4 0  9995,2 54765  53.2172  18.6524 0001759  92.1336 267.9858 15.08834823 57561,6917.896,95.438,540.978,538.544,0.0
54765.0,STARLINK-5466,PAYLOAD,2024-01-04 06:05:27,15.08839601,0.0001726,53.2177,15.0839,91.5751,268.5439,7.8974e-05,9.69e-06,0.0,0 STARLINK-5466,1 54765U 22175H   24004.25378545  .00000969  00000-0  78974-4 0  9996,2 54765  53.2177  15.0839 0001726  91.5751 268.5439 15.08839601 59837,6917.882,95.438,540.941,538.553,0.0
54765.0,STARLINK-5466,PAYLOAD,2024-01-05 04:20:51,15.08833749,0.0001714,53.2176,10.9202,93.8786,266.2402,0.00012604,1.718e-05,0.0,0 STARLINK-5466,1 54765U 22175H   24005.18115044  .00001718  00000-0  12604-3 0  9992,2 54765  53.2176  10.9202 0001714  93.8786 266.2402 15.08833749 57823,6917.899,95.438,540.95,538.579,0.0
54765.0,STARLINK-5466,PAYLOAD,2024-01-05 09:07:00,15.08836564,0.0001788,53.2181,10.0281,102.7172,257.402,0.00019163,2.763e-05,0.0,0 STARLINK-5466,1 54765U 22175H   24005.37986842  .00002763  00000-0  19163-3 0  9993,2 54765  53.2181  10.0281 0001788 102.7172 257.4020 15.08836564 60007,6917.891,95.438,540.993,538.519,0.0
54765.0,STARLINK-5466,PAYLOAD,2024-01-06 08:57:47,15.08842048,0.0001745,53.2178,5.563,98.6728,261.4462,0.0001822,2.613e-05,0.0,0 STARLINK-5466,1 54765U 22175H   24006.37346608  .00002613  00000-0  18220-3 0  9991,2 54765  53.2178   5.5630 0001745  98.6728 261.4462 15.08842048 58009,6917.874,95.437,540.946,538.532,0.0
54765.0,STARLINK-5466,PAYLOAD,2024-01-07 08:48:34,15.08846388,0.0001733,53.2181,1.1021,95.6509,264.4681,0.0001323,1.818e-05,0.0,0 STARLINK-5466,1 54765U 22175H   24007.36706379  .00001818  00000-0  13230-3 0  9998,2 54765  53.2181   1.1021 0001733  95.6509 264.4681 15.08846388 60303,6917.861,95.437,540.925,538.527,0.0
54765.0,STARLINK-5466,PAYLOAD,2024-01-08 03:53:11,15.08844747,0.0001767,53.2186,357.5305,113.6245,246.4933,8.4979e-05,1.065e-05,0.0,0 STARLINK-5466,1 54765U 22175H   24008.16194304  .00001065  00000-0  84979-4 0  9999,2 54765  53.2186 357.5305 0001767 113.6245 246.4933 15.08844747 58276,6917.866,95.437,540.953,538.508,0.0
54765.0,STARLINK-5466,PAYLOAD,2024-01-08 08:39:21,15.08847147,0.0001757,53.2182,356.6406,89.2832,270.8361,8.3328e-05,1.039e-05,0.0,0 STARLINK-5466,1 54765U 22175H   24008.36066244  .00001039  00000-0  83328-4 0  9990,2 54765  53.2182 356.6406 0001757  89.2832 270.8361 15.08847147 60459,6917.859,95.437,540.939,538.508,0.0
54765.0,STARLINK-5466,PAYLOAD,2024-01-09 05:19:21,15.08847165,0.0001746,53.218,352.7737,103.3073,256.8114,0.00010044,1.311e-05,0.0,0 STARLINK-5466,1 54765U 22175H   24009.22178028  .00001311  00000-0  10044-3 0  9997,2 54765  53.2180 352.7737 0001746 103.3073 256.8114 15.08847165 58439,6917.858,95.437,540.931,538.516,0.0
54765.0,STARLINK-5466,PAYLOAD,2024-01-09 22:48:36,15.08838875,0.0001728,53.2173,349.5099,111.7586,248.3591,5.8832e-05,6.48e-06,0.0,0 STARLINK-5466,1 54765U 22175H   24009.95042660  .00000648  00000-0  58832-4 0  9999,2 54765  53.2173 349.5099 0001728 111.7586 248.3591 15.08838875 60692,6917.884,95.438,540.944,538.553,0.0
54765.0,STARLINK-5466,PAYLOAD,2024-01-10 05:10:09,15.08845169,0.0001748,53.2177,348.3205,89.5165,270.6027,6.5612e-05,7.56e-06,0.0,0 STARLINK-5466,1 54765U 22175H   24010.21538383  .00000756  00000-0  65612-4 0  9996,2 54765  53.2177 348.3205 0001748  89.5165 270.6027 15.08845169 58580,6917.865,95.437,540.939,538.52,0.0
54765.0,STARLINK-5466,PAYLOAD,2024-01-10 08:20:55,15.08845519,0.0001741,53.2176,347.7249,93.7592,266.3599,7.0163e-05,8.29e-06,0.0,0 STARLINK-5466,1 54765U 22175H   24010.34786286  .00000829  00000-0  70163-4 0  9995,2 54765  53.2176 347.7249 0001741  93.7592 266.3599 15.08845519 60751,6917.864,95.437,540.933,538.524,0.0
54765.0,STARLINK-5466,PAYLOAD,2024-01-11 05:00:56,15.08847483,0.0001702,53.2173,343.8543,99.3629,260.7556,0.00014471,2.016e-05,0.0,0 STARLINK-5466,1 54765U 22175H   24011.20898297  .00002016  00000-0  14471-3 0  9996,2 54765  53.2173 343.8543 0001702  99.3629 260.7556 15.08847483 60889,6917.858,95.437,540.9,538.545,0.0
54765.0,STARLINK-5466,PAYLOAD,2024-01-11 22:30:11,15.08836031,0.0001721,53.2167,340.5886,93.9331,266.1858,1.0812e-05,-1.16e-06,0.0,0 STARLINK-5466,1 54765U 22175H   24011.93763128 -.00000116  00000-0  10812-4 0  9996,2 54765  53.2167 340.5886 0001721  93.9331 266.1858 15.08836031 60991,6917.893,95.438,540.948,538.567,0.0
54765.0,STARLINK-5466,PAYLOAD,2024-01-12 03:16:20,15.08839473,0.0001724,53.2168,339.6961,94.0761,266.0428,4.946e-05,4.99e-06,0.0,0 STARLINK-5466,1 54765U 22175H   24012.13634938  .00000499  00000-0  49460-4 0  9999,2 54765  53.2168 339.6961 0001724  94.0761 266.0428 15.08839473 58876,6917.882,95.438,540.94,538.554,0.0
54765.0,STARLINK-5466,PAYLOAD,2024-01-12 20:45:35,15.08832095,0.0001595,53.2177,336.426,105.3275,254.7894,9.5577e-05,1.233e-05,0.0,0 STARLINK-5466,1 54765U 22175H   24012.86499613  .00001233  00000-0  95577-4 0  9995,2 54765  53.2177 336.4260 0001595 105.3275 254.7894 15.08832095 61132,6917.905,95.438,540.873,538.666,0.0
54765.0,STARLINK-5466,PAYLOAD,2024-01-13 04:42:30,15.08849415,0.0001734,53.2175,334.94,91.3812,268.7379,0.0001564,2.203e-05,0.0,0 STARLINK-5466,1 54765U 22175H   24013.19618664  .00002203  00000-0  15640-3 0  9991,2 54765  53.2175 334.9400 0001734  91.3812 268.7379 15.08849415 59038,6917.852,95.437,540.916,538.517,0.0
54765.0,STARLINK-5466,PAYLOAD,2024-01-13 06:17:53,15.08856813,0.0001785,53.2168,334.6413,120.8914,239.2254,0.00023871,3.515e-05,0.0,0 STARLINK-5466,1 54765U 22175H   24013.26242000  .00003515  00000-0  23871-3 0  9998,2 54765  53.2168 334.6413 0001785 120.8914 239.2254 15.08856813 59044,6917.829,95.436,540.929,538.459,0.0
54765.0,STARLINK-5466,PAYLOAD,2024-01-14 04:33:18,15.08838018,0.0001802,53.2175,330.479,81.0276,279.092,6.3828e-05,7.28e-06,0.0,0 STARLINK-5466,1 54765U 22175H   24014.18979528  .00000728  00000-0  63828-4 0  9992,2 54765  53.2175 330.4790 0001802  81.0276 279.0920 15.08838018 59187,6917.886,95.438,540.998,538.505,0.0
54765.0,STARLINK-5466,PAYLOAD,2024-01-14 06:08:41,15.08842531,0.0001756,53.2173,330.1813,97.6794,262.4397,0.0001196,1.616e-05,0.0,0 STARLINK-5466,1 54765U 22175H   24014.25603193  .00001616  00000-0  11960-3 0  9998,2 54765  53.2173 330.1813 0001756  97.6794 262.4397 15.08842531 61344,6917.873,95.437,540.952,538.523,0.0
54765.0,STARLINK-5466,PAYLOAD,2024-01-15 05:59:27,15.088679,0.0001648,53.2181,325.7207,98.022,262.0959,0.00041077,6.26e-05,0.0,0 STARLINK-5466,1 54765U 22175H   24015.24962012  .00006260  00000-0  41077-3 0  9998,2 54765  53.2181 325.7207 0001648  98.0220 262.0959 15.08867900 59343,6917.795,95.436,540.8,538.52,0.0
